line1,line2,classification,launch_year,launch_number,launch_piece,epoch_year,epoch_day,mean_motion_dot,mean_motion_ddot,bstar,ephemeris_type,element_number,satellite_number,inclination,ra_of_asc_node,eccentricity,arg_of_perigee,mean_anomaly,mean_motion,rev_at_epoch,datetime,x,y,z,cartesian_cords,NORAD_CAT_ID,OBJECT_TYPE,SATNAME,SITE,Operator/Owner,Users,Purpose,anom_inclination,anom_ra_of_asc_node,anom_eccentricity,anom_arg_of_perigee,anom_mean_anomaly,anom_mean_motion,anom_count
1 01570U 65070A   21341.58675117 -.00000078  00000-0  10973-3 0  9991,2 01570  56.0564 274.3792 0099956 240.9703 292.7304 12.52766497574257,U,65,070,A,21,341.58675117,-7.8e-07,0.0,0.0,0,999,1570,56.0564,274.3792,0.0099956,240.9703,292.7304,12.52766497,57425,2021-12-07 14:04:55.301088,-1.1691058046245226,7758.64238816334,818.9613820904657,[-1.16910580e+00  7.75864239e+03  8.18961382e+02],1570,PAYLOAD,COSMOS 80,TTMTR,0,0,0,0.0,0.0,0.0,0.0,0.0,0.0,0.0
1 01570U 65070A   21340.92684666 -.00000084  00000-0  71908-4 0  9990,2 01570  56.0564 276.1695 0099977 240.0588 196.6059 12.52766471574176,U,65,070,A,21,340.92684666,-8.4e-07,0.0,0.0,0,999,1570,56.0564,276.1695,0.0099977,240.0588,196.6059,12.52766471,57417,2021-12-06 22:14:39.551424,4469.703217137774,-1418.2202412709444,6356.9312664911795,[ 4469.70321714 -1418.22024127  6356.93126649],1570,PAYLOAD,COSMOS 80,TTMTR,0,0,0,0.0,0.0,0.0,0.0,0.0,0.0,0.0
1 01570U 65070A   21340.54937712 -.00000085  00000-0  65857-4 0  9998,2 01570  56.0564 277.1936 0099989 239.5394 294.2420 12.52766468574124,U,65,070,A,21,340.54937712,-8.5e-07,0.0,0.0,0,999,1570,56.0564,277.1936,0.0099989,239.5394,294.242,12.52766468,57412,2021-12-06 13:11:06.183168,-389.1457644505856,7747.976072162995,809.2530833353433,[-389.14576445 7747.97607216  809.25308334],1570,PAYLOAD,COSMOS 80,TTMTR,0,0,0,0.0,0.0,0.0,0.0,0.0,0.0,0.0
1 01570U 65070A   21339.96770282 -.00000091  00000-0  32147-4 0  9992,2 01570  56.0564 278.7717 0100015 238.7360 190.9304 12.52766445574055,U,65,070,A,21,339.96770282,-9.1e-07,0.0,0.0,0,999,1570,56.0564,278.7717,0.0100015,238.736,190.9304,12.52766445,57405,2021-12-05 23:13:29.523648,4509.721591886402,-2136.608813737919,6126.343240328886,[ 4509.72159189 -2136.60881374  6126.34324033],1570,PAYLOAD,COSMOS 80,TTMTR,0,0,0,0.0,0.0,0.0,0.0,0.0,0.0,0.0
1 01570U 65070A   21339.59156287 -.00000092  00000-0  21105-4 0  9997,2 01570  56.0565 279.7922 0100026 238.2187 294.5626 12.52766446574003,U,65,070,A,21,339.59156287,-9.2e-07,0.0,0.0,0,999,1570,56.0565,279.7922,0.0100026,238.2187,294.5626,12.52766446,57400,2021-12-05 14:11:51.031968,-662.5605900319479,7716.288088981227,921.4695914742132,[-662.56059003 7716.28808898  921.46959147],1570,PAYLOAD,COSMOS 80,TTMTR,0,0,0,0.0,0.0,0.0,0.0,0.0,0.0,0.0
1 01570U 65070A   21338.63382794 -.00000096  00000-0  15170-5 0  9995,2 01570  56.0566 282.3908 0100076 236.9011 295.2379 12.52766478573887,U,65,070,A,21,338.63382794,-9.6e-07,0.0,0.0,0,999,1570,56.0566,282.3908,0.0100076,236.9011,295.2379,12.52766478,57388,2021-12-04 15:12:42.734016,-961.9022386851665,7674.827496594593,993.1646406257574,[-961.90223869 7674.82749659  993.16464063],1570,PAYLOAD,COSMOS 80,TTMTR,0,0,0,0.0,0.0,0.0,0.0,0.0,0.0,0.0
1 01570U 65070A   21338.22235608 -.00000097  00000-0 -45285-5 0  9993,2 01570  56.0565 283.5071 0100092 236.3332 239.5271 12.52766463573839,U,65,070,A,21,338.22235608,-9.7e-07,0.0,-4.5285e-06,0,999,1570,56.0565,283.5071,0.0100092,236.3332,239.5271,12.52766463,57383,2021-12-04 05:20:11.565312,3133.2367109214633,4137.069124043995,5910.13348643276,[3133.23671092 4137.06912404 5910.13348643],1570,PAYLOAD,COSMOS 80,TTMTR,0,0,0,0.0,0.0,0.0,0.0,0.0,0.0,0.0
1  1570U 65070A   21337.27179170 -.00000100  00000-0 -24129-4 0  9996,2  1570  56.0566 286.0861 0100124 235.0239 272.5424 12.52766433574153,U,65,070,A,21,337.2717917,-1e-06,0.0,-2.4129000000000002e-05,0,999,1570,56.0566,286.0861,0.0100124,235.0239,272.5424,12.52766433,57415,2021-12-03 06:31:22.802880,552.2210170029942,6935.522093347643,3582.032154063015,[ 552.221017   6935.52209335 3582.03215406],1570,PAYLOAD,COSMOS 80,TTMTR,0,0,0,0.0,0.0,0.0,0.0,0.0,0.0,0.0
1 01570U 65070A   21336.31564906 -.00000098  00000-0 -15048-4 0  9991,2 01570  56.0567 288.6801 0100159 233.7074 280.4002 12.52766460573593,U,65,070,A,21,336.31564906,-9.8e-07,0.0,-1.5048e-05,0,999,1570,56.0567,288.6801,0.0100159,233.7074,280.4002,12.5276646,57359,2021-12-02 07:34:32.078784,-315.7656395580596,7235.346181979089,2938.131215446366,[-315.76563956 7235.34618198 2938.13121545],1570,PAYLOAD,COSMOS 80,TTMTR,0,0,0,0.0,0.0,0.0,0.0,0.0,0.0,0.0
1 01570U 65070A   21335.60191963 -.00000099  00000-0 -19774-4 0  9992,2 01570  56.0567 290.6165 0100188 232.7240 301.5267 12.52766463573507,U,65,070,A,21,335.60191963,-9.9e-07,0.0,-1.9774e-05,0,999,1570,56.0567,290.6165,0.0100188,232.724,301.5267,12.52766463,57350,2021-12-01 14:26:45.856032,-2215.5598121582784,7431.294673440816,752.3083398529907,[-2215.55981216  7431.29467344   752.30833985],1570,PAYLOAD,COSMOS 80,TTMTR,0,0,0,0.0,0.0,0.0,0.0,0.0,0.0,0.0
1 01570U 65070A   21335.27628334 -.00000098  00000-0 -15703-4 0  9999,2 01570  56.0567 291.5000 0100198 232.2737 272.9298 12.52766470573460,U,65,070,A,21,335.27628334,-9.8e-07,0.0,-1.5703000000000002e-05,0,999,1570,56.0567,291.5,0.0100198,232.2737,272.9298,12.5276647,57346,2021-12-01 06:37:50.880576,100.73959628244508,6837.56009285917,3802.9205706333655,[ 100.73959628 6837.56009286 3802.92057063],1570,PAYLOAD,COSMOS 80,TTMTR,0,0,0,0.0,0.0,0.0,0.0,0.0,0.0,0.0
1  1570U 65070A   21335.16700574 -.00000099  00000-0 -21383-4 0  9996,2  1570  56.0566 291.7964 0100203 232.1225 140.0954 12.52766460573898,U,65,070,A,21,335.16700574,-9.9e-07,0.0,-2.1383000000000002e-05,0,999,1570,56.0566,291.7964,0.0100203,232.1225,140.0954,12.5276646,57389,2021-12-01 04:00:29.295936,3737.3160136069137,-6797.289005293678,1449.1391136531188,[ 3737.31601361 -6797.28900529  1449.13911365],1570,PAYLOAD,COSMOS 80,TTMTR,0,0,0,0.0,0.0,0.0,0.0,0.0,0.0,0.0
1 01570U 65070A   21334.64391770 -.00000099  00000-0 -21370-4 0  9998,2 01570  56.0567 293.2156 0100227 231.4041 300.9999 12.52766472573386,U,65,070,A,21,334.6439177,-9.9e-07,0.0,-2.137e-05,0,999,1570,56.0567,293.2156,0.0100227,231.4041,300.9999,12.52766472,57338,2021-11-30 15:27:14.489280,-2408.5305447581095,7347.273654595042,959.9377195176075,[-2408.53054476  7347.2736546    959.93771952],1570,PAYLOAD,COSMOS 80,TTMTR,0,0,0,0.0,0.0,0.0,0.0,0.0,0.0,0.0
1 01570U 65070A   21334.31994771 -.00000101  00000-0 -30273-4 0  9998,2 01570  56.0567 294.0946 0100237 230.9558 279.9180 12.52766463573343,U,65,070,A,21,334.31994771,-1.01e-06,0.0,-3.0273e-05,0,999,1570,56.0567,294.0946,0.0100237,230.9558,279.918,12.52766463,57334,2021-11-30 07:40:43.482144,-712.8542792333781,7067.167890635921,3260.8792128912205,[-712.85427923 7067.16789064 3260.87921289],1570,PAYLOAD,COSMOS 80,TTMTR,0,0,0,0.0,0.0,0.0,0.0,0.0,0.0,0.0
1 01570U 65070A   21333.68675549 -.00000102  00000-0 -37823-4 0  9995,2 01570  56.0567 295.8125 0100261 230.0843 304.2611 12.52766466573261,U,65,070,A,21,333.68675549,-1.02e-06,0.0,-3.7823e-05,0,999,1570,56.0567,295.8125,0.0100261,230.0843,304.2611,12.52766466,57326,2021-11-29 16:28:55.674336,-2887.539421573094,7194.732563307798,739.5794683669975,[-2887.53942157  7194.73256331   739.57946837],1570,PAYLOAD,COSMOS 80,TTMTR,0,0,0,0.0,0.0,0.0,0.0,0.0,0.0,0.0
1 01570U 65070A   21333.36591368 -.00000101  00000-0 -34232-4 0  9996,2 01570  56.0568 296.6830 0100273 229.6410 297.2866 12.52766475573220,U,65,070,A,21,333.36591368,-1.01e-06,0.0,-3.4232e-05,0,999,1570,56.0568,296.683,0.0100273,229.641,297.2866,12.52766475,57322,2021-11-29 08:46:54.941952,-2415.4750103532847,7243.144676089357,1570.5713387843175,[-2415.47501035  7243.14467609  1570.57133878],1570,PAYLOAD,COSMOS 80,TTMTR,0,0,0,0.0,0.0,0.0,0.0,0.0,0.0,0.0
1 01570U 65070A   21332.93730788 -.00000098  00000-0 -14854-4 0  9992,2 01570  56.0569 297.8455 0100272 229.0457 164.3068 12.52766513573176,U,65,070,A,21,332.93730788,-9.8e-07,0.0,-1.4854e-05,0,999,1570,56.0569,297.8455,0.0100272,229.0457,164.3068,12.52766513,57317,2021-11-28 22:29:43.400832,5219.53782515073,-4706.539436960206,3615.8643528330012,[ 5219.53782515 -4706.53943696  3615.86435283],1570,PAYLOAD,COSMOS 80,TTMTR,0,0,0,0.0,0.0,0.0,0.0,0.0,0.0,0.0
1  1570U 65070A   21332.64908959 -.00000099  00000-0 -22129-4 0  9992,2  1570  56.0567 298.6277 0100298 228.6544 304.4552 12.52766503573573,U,65,070,A,21,332.64908959,-9.9e-07,0.0,-2.2129e-05,0,999,1570,56.0567,298.6277,0.0100298,228.6544,304.4552,12.52766503,57357,2021-11-28 15:34:41.340576,-3145.242153613827,7069.610097159434,878.1616709574525,[-3145.24215361  7069.61009716   878.16167096],1570,PAYLOAD,COSMOS 80,TTMTR,0,0,0,0.0,0.0,0.0,0.0,0.0,0.0,0.0
1 01570U 65070A   21332.32500795 -.00000091  00000-0  30030-4 0  9994,2 01570  56.0569 299.5068 0100299 228.2013 282.8742 12.52766532573090,U,65,070,A,21,332.32500795,-9.1e-07,0.0,0.0,0,999,1570,56.0569,299.5068,0.0100299,228.2013,282.8742,12.52766532,57309,2021-11-28 07:48:00.686880,-1394.8668433644257,6970.061040612982,3239.895872785539,[-1394.86684336  6970.06104061  3239.89587279],1570,PAYLOAD,COSMOS 80,TTMTR,0,0,0,0.0,0.0,0.0,0.0,0.0,0.0,0.0
1 01570U 65070A   21331.69195983 -.00000090  00000-0  34510-4 0  9998,2 01570  56.0569 301.2243 0100324 227.3313 307.8656 12.52766532573012,U,65,070,A,21,331.69195983,-9e-07,0.0,0.0,0,999,1570,56.0569,301.2243,0.0100324,227.3313,307.8656,12.52766532,57301,2021-11-27 16:36:25.329312,-3616.0555717781185,6863.017203465585,640.6301634813819,[-3616.05557178  6863.01720347   640.63016348],1570,PAYLOAD,COSMOS 80,TTMTR,0,0,0,0.0,0.0,0.0,0.0,0.0,0.0,0.0
